     2.01           GLONASS NAV DATA                        RINEX VERSION / TYPE
CCRINEXG V1.4 UX    CDDIS               15-FEB-23 23:33     PGM / RUN BY / DATE 
IGS BROADCAST EPHEMERIS FILE                                COMMENT             
teqc  2020Oct7      UNAVCO Archive Ops  20230215  1:45:     COMMENT             
  2023     2    14    0.139698386192D-08                    CORR TO SYSTEM TIME 
    18                                                      LEAP SECONDS        
                                                            END OF HEADER       
 9 23  2 14 17 45  0.0 0.104116275907D-03 0.272848410532D-11 0.639000000000D+05
   -0.380773730469D+04 0.307956600189D+01 0.931322574616D-09 0.000000000000D+00
   -0.113187587891D+05 0.125772476196D+00 0.931322574616D-09-0.200000000000D+01
    0.225595629883D+05 0.576254844666D+00-0.186264514923D-08 0.000000000000D+00
10 23  2 14 17 45  0.0-0.905534252524D-04-0.909494701773D-12 0.639000000000D+05
   -0.189184096680D+05 0.205701541901D+01 0.000000000000D+00 0.000000000000D+00
   -0.805058691406D+04 0.196680068970D+00 0.000000000000D+00-0.700000000000D+01
    0.150286396484D+05 0.269928455353D+01-0.372529029846D-08 0.000000000000D+00
11 23  2 14 17 45  0.0-0.472180545330D-05-0.454747350886D-11 0.642600000000D+05
   -0.254246386719D+05-0.299840927124D+00-0.186264514923D-08 0.000000000000D+00
   -0.122828613281D+03 0.152026176453D+00-0.931322574616D-09 0.000000000000D+00
   -0.213306347656D+04 0.355508327484D+01-0.186264514923D-08 0.000000000000D+00
12 23  2 14 17 45  0.0 0.250050798059D-04-0.000000000000D+00 0.630000000000D+05
   -0.154925722656D+05-0.254632949829D+01-0.279396772385D-08 0.000000000000D+00
    0.808149755859D+04-0.485315322876D-01-0.186264514923D-08-0.100000000000D+01
   -0.185563222656D+05 0.210456085205D+01 0.000000000000D+00 0.000000000000D+00
13 23  2 14 17 45  0.0-0.320198014379D-04-0.000000000000D+00 0.630000000000D+05
    0.168790869141D+04-0.312884902954D+01-0.931322574616D-09 0.000000000000D+00
    0.111003364258D+05-0.145770072937D+00-0.931322574616D-09-0.200000000000D+01
   -0.229256142578D+05-0.300625801086D+00 0.279396772385D-08 0.000000000000D+00
14 23  2 14 17 45  0.0 0.243419781327D-04-0.000000000000D+00 0.630000000000D+05
    0.201977314453D+05-0.185431098938D+01 0.000000000000D+00 0.000000000000D+00
    0.758781494141D+04-0.196357727051D+00 0.000000000000D+00-0.700000000000D+01
   -0.135918608398D+05-0.286532878876D+01 0.279396772385D-08 0.000000000000D+00
15 23  2 14 17 45  0.0 0.910814851522D-04-0.000000000000D+00 0.630000000000D+05
    0.252958212891D+05 0.456666946411D+00 0.186264514923D-08 0.000000000000D+00
   -0.192674316406D+03-0.120237350464D+00 0.931322574616D-09 0.000000000000D+00
    0.329463769531D+04-0.352560615540D+01 0.186264514923D-08 0.000000000000D+00
16 23  2 14 17 45  0.0 0.112792477012D-04 0.000000000000D+00 0.639000000000D+05
    0.157220834961D+05 0.252528762817D+01 0.186264514923D-08 0.000000000000D+00
   -0.798897802734D+04 0.101366043091D-01 0.931322574616D-09-0.100000000000D+01
    0.184189062500D+05-0.215381431580D+01 0.000000000000D+00 0.000000000000D+00
17 23  2 14 17 45  0.0 0.604869797826D-03 0.272848410532D-11 0.639000000000D+05
    0.731490234375D+04-0.174067401886D+01 0.279396772385D-08 0.000000000000D+00
    0.796141650391D+04 0.264384460449D+01 0.931322574616D-09 0.400000000000D+01
    0.231126049805D+05-0.362812995911D+00 0.000000000000D+00 0.000000000000D+00
18 23  2 14 17 45  0.0 0.667981803417D-04 0.181898940355D-11 0.639000000000D+05
    0.154547993164D+05-0.156381416321D+01 0.186264514923D-08 0.000000000000D+00
   -0.771923095703D+04 0.204531574249D+01 0.931322574616D-09-0.300000000000D+01
    0.187608764648D+05 0.213693714142D+01 0.000000000000D+00 0.000000000000D+00
19 23  2 14 17 45  0.0-0.221899710596D-03-0.909494701773D-12 0.639000000000D+05
    0.165932192383D+05-0.678829193115D+00 0.931322574616D-09 0.000000000000D+00
   -0.184368969727D+05 0.515504837036D+00 0.931322574616D-09 0.300000000000D+01
    0.594750146484D+04 0.349394130707D+01 0.000000000000D+00 0.000000000000D+00
20 23  2 14 17 45  0.0-0.876924023032D-04-0.909494701773D-12 0.644700000000D+05
    0.674852636719D+04 0.986744880676D+00-0.931322574616D-09 0.000000000000D+00
   -0.200342163086D+05-0.170068073273D+01-0.000000000000D+00 0.200000000000D+01
   -0.142268256836D+05 0.286479663849D+01 0.000000000000D+00 0.000000000000D+00
21 23  2 14 17 45  0.0-0.373297370970D-03-0.272848410532D-11 0.630000000000D+05
   -0.826266357422D+04 0.178227329254D+01-0.279396772385D-08 0.000000000000D+00
   -0.646718017578D+04-0.264373970032D+01-0.931322574616D-09 0.400000000000D+01
   -0.232470390625D+05 0.100246429443D+00 0.931322574616D-09 0.000000000000D+00
22 23  2 14 17 45  0.0 0.709798187017D-04 0.181898940355D-11 0.630000000000D+05
   -0.162636489258D+05 0.155470943451D+01-0.279396772385D-08 0.000000000000D+00
    0.780535009766D+04-0.192629718780D+01-0.186264514923D-08-0.300000000000D+01
   -0.180144077148D+05-0.223284435272D+01 0.000000000000D+00 0.000000000000D+00
23 23  2 14 17 45  0.0-0.726263970137D-04-0.909494701773D-12 0.630300000000D+05
   -0.148765312500D+05 0.287850379944D+00 0.000000000000D+00 0.000000000000D+00
    0.206999052734D+05 0.208053588867D-01-0.931322574616D-09 0.300000000000D+01
   -0.107215869141D+04-0.360498809815D+01 0.000000000000D+00 0.000000000000D+00
24 23  2 14 17 45  0.0 0.146811828017D-03 0.272848410532D-11 0.644400000000D+05
   -0.541235009766D+04-0.100617504120D+01 0.186264514923D-08 0.000000000000D+00
    0.201887807617D+05 0.173567771912D+01 0.000000000000D+00 0.200000000000D+01
    0.146361357422D+05-0.277044105530D+01-0.000000000000D+00 0.000000000000D+00
 1 23  2 14 18 15  0.0 0.230381265283D-04 0.000000000000D+00 0.657000000000D+05
   -0.715814648438D+04-0.180241775513D+01 0.186264514923D-08 0.000000000000D+00
    0.879100878906D+04-0.255602359772D+01 0.000000000000D+00 0.100000000000D+01
    0.228543115234D+05 0.419633865356D+00-0.186264514923D-08 0.000000000000D+00
 2 23  2 14 18 15  0.0-0.232746824622D-04 0.000000000000D+00 0.648000000000D+05
    0.632821777344D+04-0.877550125122D+00 0.279396772385D-08 0.000000000000D+00
    0.208532211914D+05-0.160053062439D+01 0.000000000000D+00-0.400000000000D+01
    0.133608974609D+05 0.291751670837D+01 0.000000000000D+00 0.000000000000D+00
 3 23  2 14 18 15  0.0 0.725062564015D-04 0.909494701773D-12 0.648000000000D+05
    0.155350512695D+05 0.423311233520D+00 0.186264514923D-08 0.000000000000D+00
    0.199421552734D+05 0.315629005432D+00 0.000000000000D+00 0.500000000000D+01
   -0.359572265625D+04 0.352641677856D+01 0.186264514923D-08 0.000000000000D+00
 4 23  2 14 18 15  0.0 0.175802968442D-03 0.909494701773D-12 0.648000000000D+05
    0.157215185547D+05 0.149168682098D+01 0.000000000000D+00 0.000000000000D+00
    0.821368750000D+04 0.202749443054D+01-0.000000000000D+00 0.600000000000D+01
   -0.183066391602D+05 0.218553924560D+01 0.279396772385D-08 0.000000000000D+00
 5 23  2 14 18 15  0.0 0.107767060399D-03 0.909494701773D-12 0.648000000000D+05
    0.752205371094D+04 0.172778511047D+01-0.186264514923D-08 0.000000000000D+00
   -0.802499072266D+04 0.263963127136D+01-0.000000000000D+00 0.100000000000D+01
   -0.229988642578D+05-0.358130455017D+00 0.186264514923D-08 0.000000000000D+00
 6 23  2 14 18 15  0.0-0.954512506723D-04-0.181898940355D-11 0.648000000000D+05
   -0.772786132812D+04 0.881689071655D+00-0.279396772385D-08 0.000000000000D+00
   -0.209261342773D+05 0.144908809662D+01-0.000000000000D+00-0.400000000000D+01
   -0.123563940430D+05-0.300905609131D+01-0.000000000000D+00 0.000000000000D+00
 7 23  2 14 18 15  0.0 0.499468296766D-04 0.000000000000D+00 0.657000000000D+05
   -0.157541616211D+05-0.483168601990D+00-0.931322574616D-09 0.000000000000D+00
   -0.195134208984D+05-0.419667243957D+00 0.000000000000D+00 0.500000000000D+01
    0.455222607422D+04-0.350820064545D+01-0.279396772385D-08 0.000000000000D+00
 8 23  2 14 18 15  0.0-0.694328919053D-04 0.000000000000D+00 0.657000000000D+05
   -0.157952055664D+05-0.149448966980D+01 0.000000000000D+00 0.000000000000D+00
   -0.781915917969D+04-0.203042984009D+01 0.000000000000D+00 0.600000000000D+01
    0.184865756836D+05-0.214559841156D+01-0.279396772385D-08 0.000000000000D+00
 9 23  2 14 18 15  0.0 0.104120932519D-03 0.181898940355D-11 0.657000000000D+05
    0.178964501953D+04 0.308923912048D+01 0.186264514923D-08 0.000000000000D+00
   -0.114849707031D+05-0.309839248657D+00 0.931322574616D-09-0.200000000000D+01
    0.227128891602D+05-0.407208442688D+00-0.186264514923D-08 0.000000000000D+00
10 23  2 14 18 15  0.0-0.905552878976D-04 0.000000000000D+00 0.657000000000D+05
   -0.146580859375D+05 0.263705348968D+01 0.000000000000D+00 0.000000000000D+00
   -0.798980615234D+04-0.154997825623D+00 0.000000000000D+00-0.700000000000D+01
    0.192406572266D+05 0.195031738281D+01-0.279396772385D-08 0.000000000000D+00
11 23  2 14 18 15  0.0-0.473018735647D-05-0.454747350886D-11 0.657000000000D+05
   -0.251558974609D+05 0.595154762268D+00-0.186264514923D-08 0.000000000000D+00
    0.151666992188D+03 0.112144470215D+00 0.000000000000D+00 0.000000000000D+00
    0.426586914062D+04 0.350870323181D+01-0.279396772385D-08 0.000000000000D+00
12 23  2 14 18 15  0.0 0.250050798059D-04-0.000000000000D+00 0.648000000000D+05
   -0.195447465820D+05-0.191937255859D+01-0.279396772385D-08 0.000000000000D+00
    0.830449755859D+04 0.267535209656D+00-0.931322574616D-09-0.100000000000D+01
   -0.140982060547D+05 0.281666469574D+01-0.000000000000D+00 0.000000000000D+00
13 23  2 14 18 15  0.0-0.320207327604D-04-0.000000000000D+00 0.648000000000D+05
   -0.393699316406D+04-0.306986713409D+01-0.186264514923D-08 0.000000000000D+00
    0.112440322266D+05 0.302026748657D+00-0.931322574616D-09-0.200000000000D+01
   -0.225756459961D+05 0.686986923218D+00 0.186264514923D-08 0.000000000000D+00
